[{"OBJECT_NAME":"COSMO-SKYMED 3","OBJECT_ID":"2008-054A","EPOCH":"2026-03-09T22:03:15.183936","MEAN_MOTION":15.06259488,"ECCENTRICITY":0.00143526,"INCLINATION":97.8419,"RA_OF_ASC_NODE":285.8111,"ARG_OF_PERICENTER":240.3641,"MEAN_ANOMALY":119.6157,"EPHEMERIS_TYPE":0,"CLASSIFICATION_TYPE":"U","NORAD_CAT_ID":33412,"ELEMENT_SET_NO":999,"REV_AT_EPOCH":94199,"BSTAR":0.00061875413,"MEAN_MOTION_DOT":9.042e-5,"MEAN_MOTION_DDOT":0},{"OBJECT_NAME":"STARLINK-2506","OBJECT_ID":"2021-036AR","EPOCH":"2026-03-09T06:38:45.414528","MEAN_MOTION":15.06398783,"ECCENTRICITY":0.00014126,"INCLINATION":53.0562,"RA_OF_ASC_NODE":93.4738,"ARG_OF_PERICENTER":92.8622,"MEAN_ANOMALY":267.2529,"EPHEMERIS_TYPE":0,"CLASSIFICATION_TYPE":"U","NORAD_CAT_ID":48315,"ELEMENT_SET_NO":999,"REV_AT_EPOCH":26810,"BSTAR":-8.872372e-6,"MEAN_MOTION_DOT":-4.14e-6,"MEAN_MOTION_DDOT":0}]
